{"norad_cat_id":"11546","object_name":"SL-8 R/B","object_id":"1979-084J","object_type":"ROCKET BODY","country_code":"CIS","epoch":"2026-05-30T04:57:32.054400","creation_date":"2026-05-30T07:26:56","launch_date":"1979-09-25","decay_date":null,"inclination":74.0251,"eccentricity":0.0125582,"mean_motion":12.22327436,"period":117.808,"semimajor_axis":7960.557,"apoapsis":1682.392,"periapsis":1482.452,"tle_line0":"0 SL-8 R/B","tle_line1":"1 11546U 79084J   26150.20662100  .00000003  00000-0  15977-3 0  9991","tle_line2":"2 11546  74.0251  55.7834 0125582  78.5218  87.7914 12.22327436 82653","fetched_at":"2026-05-30T16:18:06.042337+00:00"}
{"norad_cat_id":"5557","object_name":"OPS 4311 (DMSP 5B F1)","object_id":"1971-087A","object_type":"PAYLOAD","country_code":"US","epoch":"2026-05-30T04:57:31.790016","creation_date":"2026-05-30T07:26:56","launch_date":"1971-10-14","decay_date":null,"inclination":99.0187,"eccentricity":0.0049637,"mean_motion":14.28509684,"period":100.804,"semimajor_axis":7174.854,"apoapsis":832.333,"periapsis":761.105,"tle_line0":"0 OPS 4311 (DMSP 5B F1)","tle_line1":"1  5557U 71087A   26150.20661794  .00000206  00000-0  10010-3 0  9997","tle_line2":"2  5557  99.0187 252.0099 0049637 322.0092  37.7591 14.28509684837874","fetched_at":"2026-05-30T16:18:06.042337+00:00"}
{"norad_cat_id":"60416","object_name":"STARLINK-32197","object_id":"2024-141U","object_type":"PAYLOAD","country_code":"US","epoch":"2026-05-30T04:57:27.029376","creation_date":"2026-05-30T07:36:53","launch_date":"2024-08-10","decay_date":null,"inclination":53.1609,"eccentricity":0.0001041,"mean_motion":15.31701743,"period":94.013,"semimajor_axis":6848.872,"apoapsis":471.45,"periapsis":470.024,"tle_line0":"0 STARLINK-32197","tle_line1":"1 60416U 24141U   26150.20656284  .00000810  00000-0  37859-4 0  9991","tle_line2":"2 60416  53.1609 213.8146 0001041  95.8192 264.2929 15.31701743102142","fetched_at":"2026-05-30T16:18:06.042337+00:00"}
{"norad_cat_id":"60554","object_name":"UM5-RIBAT","object_id":"2024-149CQ","object_type":"PAYLOAD","country_code":"MA","epoch":"2026-05-30T04:57:25.602048","creation_date":"2026-05-30T07:36:53","launch_date":"2024-08-16","decay_date":null,"inclination":97.665,"eccentricity":0.0003898,"mean_motion":15.00960947,"period":95.939,"semimajor_axis":6942.069,"apoapsis":566.64,"periapsis":561.228,"tle_line0":"0 UM5-RIBAT","tle_line1":"1 60554U 24149CQ  26150.20654632  .00004520  00000-0  35907-3 0  9990","tle_line2":"2 60554  97.6650 228.2491 0003898  90.1728 269.9942 15.00960947 97499","fetched_at":"2026-05-30T16:18:06.042337+00:00"}
{"norad_cat_id":"49458","object_name":"STARLINK-3156","object_id":"2021-104BC","object_type":"PAYLOAD","country_code":"US","epoch":"2026-05-30T04:57:24.700896","creation_date":"2026-05-30T07:36:53","launch_date":"2021-11-13","decay_date":null,"inclination":53.1964,"eccentricity":0.0001318,"mean_motion":15.08832136,"period":95.438,"semimajor_axis":6917.904,"apoapsis":540.681,"periapsis":538.858,"tle_line0":"0 STARLINK-3156","tle_line1":"1 49458U 21104BC  26150.20653589  .00000089  00000-0  23713-4 0  9997","tle_line2":"2 49458  53.1964 213.1702 0001318  93.9778 266.1365 15.08832136251084","fetched_at":"2026-05-30T16:18:06.042337+00:00"}
{"norad_cat_id":"63573","object_name":"STARLINK-33683","object_id":"2025-076E","object_type":"PAYLOAD","country_code":"US","epoch":"2026-05-30T04:57:18.361728","creation_date":"2026-05-30T07:46:57","launch_date":"2025-04-14","decay_date":null,"inclination":43.0026,"eccentricity":0.0001395,"mean_motion":15.27590955,"period":94.266,"semimajor_axis":6861.153,"apoapsis":483.975,"periapsis":482.061,"tle_line0":"0 STARLINK-33683","tle_line1":"1 63573U 25076E   26150.20646252  .00024490  00000-0  89623-3 0  9995","tle_line2":"2 63573  43.0026 221.6571 0001395 269.7090  90.3602 15.27590955 64295","fetched_at":"2026-05-30T16:18:06.042337+00:00"}
{"norad_cat_id":"54645","object_name":"ONEWEB-0540","object_id":"2022-166D","object_type":"PAYLOAD","country_code":"UK","epoch":"2026-05-30T04:57:17.667072","creation_date":"2026-05-30T07:36:53","launch_date":"2022-12-08","decay_date":null,"inclination":87.9255,"eccentricity":0.0002093,"mean_motion":13.21825869,"period":108.94,"semimajor_axis":7555.891,"apoapsis":1179.337,"periapsis":1176.174,"tle_line0":"0 ONEWEB-0540","tle_line1":"1 54645U 22166D   26150.20645448  .00000061  00000-0  11669-3 0  9991","tle_line2":"2 54645  87.9255 247.5789 0002093  97.7066 262.4306 13.21825869169153","fetched_at":"2026-05-30T16:18:06.042337+00:00"}
{"norad_cat_id":"67186","object_name":"STARLINK-35857","object_id":"2025-303Z","object_type":"PAYLOAD","country_code":"US","epoch":"2026-05-30T04:57:16.396128","creation_date":"2026-05-30T07:26:56","launch_date":"2025-12-17","decay_date":null,"inclination":43.0008,"eccentricity":0.0001209,"mean_motion":15.27580174,"period":94.267,"semimajor_axis":6861.186,"apoapsis":483.88,"periapsis":482.221,"tle_line0":"0 STARLINK-35857","tle_line1":"1 67186U 25303Z   26150.20643977  .00012197  00000-0  45201-3 0  9998","tle_line2":"2 67186  43.0008 210.2117 0001209 187.3757 172.7077 15.27580174 25209","fetched_at":"2026-05-30T16:18:06.042337+00:00"}
{"norad_cat_id":"47536","object_name":"YAOGAN-31 F","object_id":"2021-007E","object_type":"PAYLOAD","country_code":"PRC","epoch":"2026-05-30T04:57:15.023232","creation_date":"2026-05-30T07:36:53","launch_date":"2021-01-29","decay_date":null,"inclination":63.402,"eccentricity":0.0174476,"mean_motion":13.45445679,"period":107.028,"semimajor_axis":7467.199,"apoapsis":1219.349,"periapsis":958.779,"tle_line0":"0 YAOGAN-31 F","tle_line1":"1 47536U 21007E   26150.20642388 -.00000122  00000-0 -48979-4 0  9990","tle_line2":"2 47536  63.4020 188.3531 0174476   0.5760 359.5436 13.45445679261796","fetched_at":"2026-05-30T16:18:06.042337+00:00"}
{"norad_cat_id":"33409","object_name":"SHIJIAN 6 03B (SJ-6 03B)","object_id":"2008-053B","object_type":"PAYLOAD","country_code":"PRC","epoch":"2026-05-30T04:57:14.420160","creation_date":"2026-05-30T07:26:56","launch_date":"2008-10-25","decay_date":null,"inclination":97.8567,"eccentricity":0.0020546,"mean_motion":15.04246691,"period":95.729,"semimajor_axis":6931.956,"apoapsis":568.063,"periapsis":539.579,"tle_line0":"0 SHIJIAN 6 03B (SJ-6 03B)","tle_line1":"1 33409U 08053B   26150.20641690  .00003298  00000-0  24075-3 0  9990","tle_line2":"2 33409  97.8567 169.7999 0020546 100.9986 259.3551 15.04246691960040","fetched_at":"2026-05-30T16:18:06.042337+00:00"}
{"norad_cat_id":"6269","object_name":"COSMOS 534","object_id":"1972-087G","object_type":"PAYLOAD","country_code":"CIS","epoch":"2026-05-30T04:57:14.260320","creation_date":"2026-05-30T07:26:56","launch_date":"1972-11-01","decay_date":null,"inclination":74.0364,"eccentricity":0.0076381,"mean_motion":12.63677577,"period":113.953,"semimajor_axis":7785.939,"apoapsis":1467.274,"periapsis":1348.334,"tle_line0":"0 COSMOS 534","tle_line1":"1  6269U 72087G   26150.20641505 -.00000014  00000-0  10153-4 0  9994","tle_line2":"2  6269  74.0364  63.3191 0076381 162.1345 271.5872 12.63677577471363","fetched_at":"2026-05-30T16:18:06.042337+00:00"}
{"norad_cat_id":"43642","object_name":"YAOGAN-32 A","object_id":"2018-077A","object_type":"PAYLOAD","country_code":"PRC","epoch":"2026-05-30T04:57:13.896576","creation_date":"2026-05-30T07:26:56","launch_date":"2018-10-09","decay_date":null,"inclination":98.1485,"eccentricity":0.0001228,"mean_motion":14.63147891,"period":98.418,"semimajor_axis":7061.165,"apoapsis":683.897,"periapsis":682.163,"tle_line0":"0 YAOGAN-32 A","tle_line1":"1 43642U 18077A   26150.20641084  .00000922  00000-0  18849-3 0  9997","tle_line2":"2 43642  98.1485 178.9664 0001228 102.4584 257.6756 14.63147891407210","fetched_at":"2026-05-30T16:18:06.042337+00:00"}
{"norad_cat_id":"40532","object_name":"CZ-4B DEB","object_id":"2013-057E","object_type":"DEBRIS","country_code":"PRC","epoch":"2026-05-30T04:57:11.809152","creation_date":"2026-05-30T07:26:56","launch_date":"2013-10-25","decay_date":null,"inclination":74.868,"eccentricity":0.0183777,"mean_motion":14.56571955,"period":98.862,"semimajor_axis":7082.402,"apoapsis":834.425,"periapsis":574.108,"tle_line0":"0 CZ-4B DEB","tle_line1":"1 40532U 13057E   26150.20638668  .00003158  00000-0  56765-3 0  9992","tle_line2":"2 40532  74.8680 227.7166 0183777   0.8790 359.2663 14.56571955588875","fetched_at":"2026-05-30T16:18:06.042337+00:00"}
{"norad_cat_id":"64500","object_name":"KUIPER-00039","object_id":"2025-134A","object_type":"PAYLOAD","country_code":"US","epoch":"2026-05-30T04:57:06.793632","creation_date":"2026-05-30T07:46:57","launch_date":"2025-06-23","decay_date":null,"inclination":51.9015,"eccentricity":4.01e-05,"mean_motion":14.79940486,"period":97.301,"semimajor_axis":7007.649,"apoapsis":629.795,"periapsis":629.233,"tle_line0":"0 KUIPER-00039","tle_line1":"1 64500U 25134A   26150.20632863  .00005194  00000-0  70971-3 0  9990","tle_line2":"2 64500  51.9015 232.6375 0000401  92.9590 267.1418 14.79940486 52148","fetched_at":"2026-05-30T16:18:06.042337+00:00"}
{"norad_cat_id":"43643","object_name":"YAOGAN-32 B","object_id":"2018-077B","object_type":"PAYLOAD","country_code":"PRC","epoch":"2026-05-30T04:56:58.426656","creation_date":"2026-05-30T07:26:56","launch_date":"2018-10-09","decay_date":null,"inclination":98.1488,"eccentricity":0.0004352,"mean_motion":14.63147802,"period":98.418,"semimajor_axis":7061.165,"apoapsis":686.103,"periapsis":679.957,"tle_line0":"0 YAOGAN-32 B","tle_line1":"1 43643U 18077B   26150.20623179  .00000896  00000-0  18350-3 0  9990","tle_line2":"2 43643  98.1488 178.9206 0004352 278.8179  81.2530 14.63147802407207","fetched_at":"2026-05-30T16:18:06.042337+00:00"}
